{"type":"FeatureCollection","features":[{"type":"Feature","properties":{"nazwa":"Polska"},"geometry":{"type":"Polygon","coordinates":[[[14.1237,52.8454],[14.15866,52.87718],[14.16151,52.88777],[14.1523,52.9006],[14.15018,52.91634],[14.1426,52.9332],[14.14423,52.94349],[14.1388,52.9518],[14.1437,52.9614],[14.16054,52.96462],[14.16872,52.97361],[14.2094,52.9882],[14.2356,52.9932],[14.25897,53.00299],[14.2916,53.02],[14.3123,53.0355],[14.33796,53.04659],[14.35237,53.05888],[14.36551,53.07864],[14.37127,53.09646],[14.3702,53.1046],[14.37835,53.11177],[14.38716,53.14193],[14.3737,53.1543],[14.3663,53.172],[14.37458,53.18776],[14.3773,53.2018],[14.4057,53.21071],[14.4085,53.2232],[14.43069,53.23902],[14.436,53.2496],[14.44945,53.25977],[14.44493,53.27435],[14.4212,53.2761],[14.41491,53.30179],[14.4068,53.3087],[14.41526,53.32472],[14.40551,53.34699],[14.3903,53.3537],[14.39531,53.36948],[14.38926,53.38784],[14.3733,53.4089],[14.3687,53.4326],[14.37113,53.45591],[14.3581,53.4573],[14.35071,53.49573],[14.3269,53.5038],[14.3158,53.5251],[14.3158,53.53685],[14.3058,53.5439],[14.30261,53.55338],[14.31382,53.56517],[14.3119,53.5797],[14.31677,53.61741],[14.2839,53.6344],[14.28472,53.65851],[14.2708,53.6668],[14.28196,53.67464],[14.2668,53.6987],[14.27346,53.74413],[14.267,53.7535],[14.28333,53.77249],[14.2139,53.8654],[14.21539,53.88084],[14.21214,53.90033],[14.204,53.9066],[14.2076,53.9159],[14.22608,53.92769],[14.27176,53.92421],[14.2712,53.9348],[14.2804,53.9376],[14.3015,53.9304],[14.30338,53.91953],[14.3444,53.91192],[14.40845,53.91979],[14.4548,53.9364],[14.4992,53.9634],[14.66835,54.00301],[14.7277,54.0229],[14.92933,54.06171],[15.05958,54.09489],[15.09554,54.10031],[15.24716,54.13499],[15.286,54.1471],[15.42937,54.1654],[15.48018,54.16602],[15.5245,54.17481],[15.5532,54.1876],[15.58848,54.18761],[15.71878,54.2092],[15.84828,54.2411],[16.02926,54.2585],[16.10235,54.27439],[16.15456,54.29219],[16.20466,54.31518],[16.26238,54.34929],[16.31384,54.38343],[16.35753,54.42063],[16.37387,54.43739],[16.3716,54.4414],[16.39471,54.44783],[16.4315,54.487],[16.4797,54.5164],[16.5299,54.5407],[16.61452,54.5598],[16.6887,54.5696],[16.76502,54.56979],[16.85358,54.5889],[16.89003,54.59171],[16.95216,54.61263],[17.00033,54.63752],[17.0508,54.6697],[17.26318,54.7341],[17.35453,54.7497],[17.46965,54.757],[17.55079,54.7701],[17.62682,54.7773],[17.91502,54.8274],[17.96782,54.8323],[18.08029,54.8352],[18.3294,54.8353],[18.3489,54.8273],[18.36974,54.81389],[18.4214,54.798],[18.43431,54.78906],[18.66159,54.7111],[18.73318,54.68191],[18.7944,54.6481],[18.8262,54.6233],[18.8289,54.6077],[18.8137,54.5932],[18.799,54.6014],[18.79514,54.60871],[18.7791,54.6131],[18.7777,54.62111],[18.7642,54.6376],[18.7158,54.6782],[18.68574,54.69463],[18.654,54.6998],[18.62676,54.71841],[18.45083,54.78002],[18.42239,54.78767],[18.4173,54.7694],[18.40678,54.76155],[18.39638,54.74628],[18.39427,54.72948],[18.4291,54.7171],[18.44674,54.70419],[18.473,54.6946],[18.466,54.68596],[18.46592,54.65599],[18.474,54.6499],[18.4686,54.63789],[18.47486,54.63114],[18.512,54.6342],[18.51063,54.62086],[18.51621,54.60661],[18.53383,54.58827],[18.5417,54.5851],[18.5597,54.5506],[18.5616,54.5174],[18.55163,54.51463],[18.5691,54.4853],[18.56185,54.47073],[18.56457,54.45547],[18.58,54.4383],[18.62363,54.41404],[18.64327,54.40856],[18.6624,54.4131],[18.69747,54.40136],[18.7183,54.4086],[18.73128,54.40331],[18.70847,54.39],[18.71785,54.3802],[18.73541,54.37453],[18.77623,54.37049],[18.85076,54.35221],[18.88024,54.348],[18.9172,54.34632],[18.9541,54.3591],[18.96885,54.34989],[18.9895,54.34511],[19.09779,54.3464],[19.30743,54.3633],[19.40717,54.3809],[19.47813,54.39781],[19.54613,54.41851],[19.59706,54.43848],[19.6377,54.4592],[19.64889,54.45329],[20.33198,54.4011],[20.43853,54.3879],[20.58397,54.378],[20.6224,54.371],[20.63111,54.36637],[20.64812,54.3712],[20.74083,54.3693],[20.81844,54.36],[21.00667,54.3536],[21.03816,54.3486],[21.08981,54.3473],[21.1432,54.3426],[21.16414,54.3373],[21.19673,54.3378],[21.27436,54.32841],[21.3029,54.3335],[21.3239,54.32941],[21.3795,54.3311],[21.437,54.3262],[21.44641,54.31824],[21.49582,54.324],[21.79618,54.3318],[22.15284,54.3366],[22.2257,54.3438],[22.25996,54.3406],[22.42182,54.3485],[22.52805,54.3492],[22.57132,54.3539],[22.6416,54.35381],[22.6806,54.3602],[22.79185,54.36329],[22.81144,54.37109],[22.8363,54.4065],[22.8547,54.4104],[22.888,54.4091],[22.88829,54.39984],[22.9838,54.3896],[22.98531,54.38448],[23.0102,54.3828],[22.99486,54.36154],[23.0094,54.3557],[23.0477,54.3492],[23.0632,54.341],[23.05087,54.33341],[23.04298,54.3157],[23.09216,54.29856],[23.1404,54.3159],[23.1598,54.3096],[23.15497,54.29683],[23.1764,54.2909],[23.2024,54.2886],[23.23407,54.26086],[23.24899,54.25681],[23.2818,54.2607],[23.28879,54.25709],[23.3375,54.2517],[23.3484,54.2457],[23.35826,54.23362],[23.38258,54.22751],[23.3942,54.2169],[23.4064,54.19637],[23.4192,54.1911],[23.4246,54.17764],[23.459,54.1755],[23.46135,54.16783],[23.4755,54.1634],[23.4858,54.1532],[23.4953,54.1326],[23.49281,54.11712],[23.502,54.1129],[23.50705,54.09948],[23.5183,54.0898],[23.51846,54.07868],[23.5286,54.0658],[23.5249,54.0311],[23.51617,54.02843],[23.509,54.0118],[23.48145,53.99819],[23.4904,53.97401],[23.5063,53.9658],[23.5149,53.9566],[23.51161,53.9159],[23.52429,53.87202],[23.52421,53.86289],[23.5482,53.8561],[23.5535,53.8319],[23.54648,53.82628],[23.54471,53.7963],[23.54912,53.76792],[23.5821,53.7438],[23.5856,53.7283],[23.58537,53.70553],[23.62688,53.59584],[23.65968,53.52148],[23.66721,53.51258],[23.70742,53.43646],[23.73711,53.39157],[23.79898,53.27423],[23.81887,53.24402],[23.8553,53.2318],[23.8612,53.2211],[23.85735,53.21025],[23.86835,53.19398],[23.8957,53.17641],[23.9077,53.1722],[23.9174,53.1568],[23.9158,53.143],[23.8972,53.13105],[23.88729,53.11657],[23.8888,53.105],[23.87261,53.08233],[23.8785,53.0794],[23.88248,53.06608],[23.9026,53.0582],[23.89914,53.05021],[23.9168,53.039],[23.9108,53.0325],[23.9254,53.0246],[23.9333,52.9884],[23.93121,52.97618],[23.9463,52.9587],[23.9165,52.93832],[23.91622,52.90512],[23.9258,52.8988],[23.92461,52.83084],[23.9396,52.8132],[23.9386,52.7129],[23.90022,52.69126],[23.8925,52.6797],[23.8792,52.6796],[23.7562,52.6145],[23.7315,52.6086],[23.71845,52.61468],[23.64133,52.60748],[23.54024,52.58021],[23.46668,52.54943],[23.4579,52.5404],[23.4358,52.53],[23.40814,52.51153],[23.35667,52.46887],[23.31234,52.42513],[23.3103,52.414],[23.29992,52.40382],[23.27797,52.39276],[23.23838,52.35438],[23.17901,52.28358],[23.2012,52.2781],[23.20082,52.2645],[23.2056,52.2572],[23.19426,52.23954],[23.20019,52.22967],[23.23895,52.21961],[23.27321,52.21493],[23.2948,52.2211],[23.29941,52.21167],[23.3375,52.20623],[23.3525,52.2107],[23.366,52.208],[23.37148,52.19652],[23.4002,52.1945],[23.39934,52.17922],[23.4136,52.1826],[23.423,52.17342],[23.43199,52.17345],[23.4447,52.1828],[23.4582,52.1846],[23.47108,52.17449],[23.4856,52.1813],[23.50738,52.17391],[23.49089,52.16851],[23.48743,52.15462],[23.50158,52.1472],[23.5098,52.1502],[23.52117,52.13301],[23.5417,52.1285],[23.54362,52.1203],[23.56686,52.11573],[23.5802,52.1199],[23.5986,52.1174],[23.6078,52.1098],[23.61181,52.09803],[23.62019,52.09128],[23.6402,52.0858],[23.64301,52.07718],[23.6536,52.0711],[23.64511,52.06411],[23.6523,52.0586],[23.6627,52.0399],[23.66323,52.02399],[23.67628,52.00334],[23.689,51.9919],[23.6864,51.9867],[23.66575,51.97887],[23.6693,51.9647],[23.65056,51.96307],[23.64008,51.95373],[23.6447,51.9324],[23.6209,51.92512],[23.61255,51.91768],[23.6204,51.911],[23.61882,51.90354],[23.6318,51.8997],[23.6369,51.8918],[23.6236,51.88686],[23.6204,51.8776],[23.60743,51.876],[23.61031,51.86087],[23.6174,51.857],[23.6022,51.83377],[23.6203,51.8315],[23.6402,51.8048],[23.62982,51.7922],[23.6313,51.7815],[23.6116,51.772],[23.59705,51.7721],[23.5883,51.76],[23.5739,51.7569],[23.56122,51.7611],[23.546,51.7484],[23.53031,51.74186],[23.5273,51.72956],[23.53461,51.72324],[23.5471,51.7238],[23.5581,51.7016],[23.5492,51.68385],[23.5578,51.6647],[23.54457,51.66147],[23.53983,51.65475],[23.5412,51.63555],[23.5464,51.6219],[23.54261,51.60034],[23.5679,51.5756],[23.568,51.56242],[23.5777,51.5579],[23.56581,51.55074],[23.56532,51.53457],[23.58709,51.52959],[23.593,51.5354],[23.6247,51.5144],[23.61746,51.50989],[23.62131,51.49586],[23.6703,51.4825],[23.6714,51.4748],[23.65348,51.45931],[23.6515,51.44608],[23.6667,51.4454],[23.6825,51.4401],[23.67719,51.43021],[23.7005,51.4099],[23.69028,51.39856],[23.68077,51.38042],[23.6827,51.3727],[23.6691,51.3622],[23.65645,51.35843],[23.6562,51.3391],[23.63628,51.32896],[23.63956,51.30993],[23.6519,51.3003],[23.64663,51.29162],[23.65629,51.28703],[23.6857,51.2904],[23.7041,51.2818],[23.70957,51.27335],[23.7256,51.2618],[23.72425,51.24633],[23.72756,51.2357],[23.743,51.2244],[23.73977,51.21538],[23.7539,51.2113],[23.76811,51.20034],[23.7825,51.1991],[23.787,51.18896],[23.8089,51.1846],[23.81368,51.17141],[23.83043,51.16224],[23.8579,51.1581],[23.8703,51.1399],[23.85083,51.12503],[23.8554,51.1186],[23.85724,51.09976],[23.8714,51.0949],[23.8767,51.07913],[23.89184,51.0748],[23.9114,51.0742],[23.91818,51.02566],[23.9354,51.0153],[23.9235,51.01126],[23.9568,50.9908],[23.96669,50.97912],[23.96995,50.95088],[23.987,50.9451],[23.99889,50.92738],[24.0228,50.9166],[24.05882,50.89225],[24.0869,50.8888],[24.10138,50.87616],[24.1129,50.8754],[24.12832,50.86776],[24.1454,50.8695],[24.1433,50.8582],[24.1321,50.849],[24.0968,50.8365],[24.0449,50.8337],[24.02464,50.84068],[24.00701,50.8412],[23.98966,50.83749],[23.96403,50.81458],[23.9652,50.8017],[23.95797,50.79435],[23.9684,50.7855],[23.96889,50.77608],[23.985,50.77012],[24.0096,50.772],[24.0238,50.7662],[24.01306,50.75804],[24.0205,50.747],[24.01888,50.725],[24.0461,50.71712],[24.072,50.7206],[24.07509,50.71068],[24.0722,50.6986],[24.06325,50.68377],[24.0867,50.6691],[24.0893,50.6513],[24.08086,50.64495],[24.0936,50.6352],[24.09182,50.61655],[24.0987,50.5995],[24.09032,50.5779],[24.0913,50.562],[24.0701,50.5034],[24.03806,50.4552],[24.0345,50.4448],[24.0059,50.43536],[23.9975,50.4121],[23.94044,50.41389],[23.80345,50.4048],[23.727,50.38799],[23.70302,50.37514],[23.69122,50.35344],[23.6863,50.3316],[23.63897,50.3205],[23.631,50.3048],[23.61155,50.29912],[23.581,50.266],[23.50633,50.23032],[23.47011,50.21789],[23.4294,50.1842],[23.38025,50.15937],[23.314,50.112],[23.2969,50.1029],[23.27962,50.0998],[23.2793,50.0863],[23.26457,50.07886],[23.2393,50.0545],[23.21621,50.04749],[23.21298,50.03109],[23.1426,49.9712],[23.115,49.95653],[23.10748,49.94199],[23.03143,49.87953],[22.9955,49.8422],[22.97071,49.83844],[22.9544,49.8033],[22.93277,49.79327],[22.89819,49.76474],[22.8968,49.7518],[22.87337,49.74056],[22.85217,49.72046],[22.84778,49.71009],[22.8219,49.6945],[22.80537,49.69319],[22.78724,49.67648],[22.7833,49.6572],[22.74937,49.63127],[22.68484,49.57183],[22.67468,49.54918],[22.6632,49.5388],[22.6413,49.53004],[22.65144,49.50826],[22.67041,49.49752],[22.6967,49.4951],[22.7135,49.4362],[22.73249,49.39862],[22.7468,49.3599],[22.74323,49.33585],[22.751,49.3166],[22.7441,49.29876],[22.7396,49.2473],[22.72139,49.24126],[22.71523,49.22708],[22.7475,49.2165],[22.73453,49.2118],[22.7289,49.197],[22.72244,49.19567],[22.70797,49.17468],[22.71493,49.1704],[22.73013,49.17558],[22.7328,49.1822],[22.752,49.1814],[22.73927,49.15926],[22.76035,49.15251],[22.7924,49.1534],[22.79382,49.13782],[22.8164,49.128],[22.8422,49.10996],[22.87597,49.09672],[22.8928,49.0946],[22.8841,49.0818],[22.86834,49.07718],[22.86644,49.05997],[22.8758,49.0511],[22.86686,49.04046],[22.87878,49.02475],[22.8941,49.0176],[22.8916,49.0077],[22.8474,49.0025],[22.83367,49.02594],[22.8132,49.0251],[22.80927,49.03461],[22.76585,49.05336],[22.755,49.0429],[22.7146,49.05149],[22.69907,49.04966],[22.6833,49.0389],[22.65158,49.05081],[22.638,49.0614],[22.62558,49.08028],[22.605,49.0845],[22.59967,49.09348],[22.58279,49.09724],[22.5598,49.0873],[22.53467,49.09329],[22.51135,49.09219],[22.4998,49.0859],[22.4871,49.0884],[22.46684,49.10067],[22.45542,49.10367],[22.4284,49.0985],[22.4095,49.1051],[22.39029,49.12729],[22.3813,49.1305],[22.36945,49.14549],[22.33475,49.14648],[22.3205,49.1356],[22.2818,49.1421],[22.24625,49.15328],[22.2246,49.153],[22.2278,49.1635],[22.23565,49.16871],[22.23032,49.18069],[22.20965,49.18247],[22.193,49.1744],[22.1759,49.1831],[22.1429,49.1936],[22.14304,49.20046],[22.07798,49.20881],[22.0302,49.2255],[22.03898,49.24496],[22.04074,49.25799],[22.0331,49.2647],[22.03344,49.279],[22.0107,49.2895],[21.9832,49.3104],[21.97737,49.32643],[21.96098,49.34896],[21.932,49.3464],[21.91808,49.35413],[21.9065,49.3528],[21.8934,49.3572],[21.88729,49.36892],[21.87571,49.37351],[21.859,49.3686],[21.8476,49.3786],[21.83974,49.39147],[21.8259,49.39079],[21.8174,49.3843],[21.7971,49.37851],[21.778,49.356],[21.7662,49.3672],[21.76324,49.38349],[21.7258,49.3992],[21.72322,49.41084],[21.69768,49.41823],[21.6847,49.4114],[21.6589,49.4168],[21.65649,49.42442],[21.6441,49.4313],[21.63056,49.44723],[21.61477,49.44476],[21.6016,49.4353],[21.5837,49.4338],[21.56496,49.4411],[21.551,49.4331],[21.53425,49.43538],[21.52427,49.43176],[21.5112,49.4197],[21.49547,49.42951],[21.4854,49.42622],[21.479,49.4158],[21.4562,49.4163],[21.4341,49.4123],[21.39867,49.43373],[21.3727,49.4326],[21.3685,49.43908],[21.33722,49.45135],[21.3068,49.4484],[21.27741,49.46083],[21.26732,49.45717],[21.2593,49.4467],[21.24072,49.43421],[21.22462,49.42689],[21.2273,49.417],[21.1921,49.401],[21.15223,49.42698],[21.12414,49.43643],[21.1137,49.4239],[21.09631,49.42945],[21.05658,49.42171],[21.04761,49.41687],[21.05445,49.40412],[21.1041,49.3764],[21.0941,49.3651],[21.06605,49.3653],[21.0544,49.3618],[21.04364,49.36526],[21.0273,49.3569],[20.98868,49.32746],[20.9941,49.3127],[20.9866,49.3066],[20.97554,49.30945],[20.94028,49.2992],[20.9243,49.299],[20.91052,49.30719],[20.89714,49.32512],[20.8779,49.3203],[20.88207,49.33333],[20.85976,49.34818],[20.8397,49.3349],[20.8259,49.3344],[20.80226,49.35544],[20.7887,49.3608],[20.77924,49.37485],[20.7642,49.3709],[20.76168,49.38343],[20.7475,49.3923],[20.7568,49.4003],[20.7423,49.4038],[20.74531,49.41234],[20.72294,49.41968],[20.69275,49.41998],[20.6653,49.4044],[20.6426,49.401],[20.63585,49.40851],[20.61162,49.41238],[20.6002,49.3883],[20.5802,49.38293],[20.5762,49.3762],[20.5577,49.3781],[20.54661,49.38551],[20.5099,49.3934],[20.50324,49.40399],[20.46429,49.41598],[20.4464,49.4119],[20.43005,49.41544],[20.428,49.402],[20.40477,49.3923],[20.3824,49.391],[20.37873,49.40524],[20.3617,49.3982],[20.3257,49.40287],[20.32117,49.37764],[20.3256,49.3713],[20.3229,49.35302],[20.3142,49.3435],[20.29292,49.3515],[20.27319,49.35139],[20.2661,49.3471],[20.2508,49.35047],[20.2318,49.3463],[20.22183,49.35161],[20.2128,49.3448],[20.19524,49.34224],[20.1842,49.3278],[20.17141,49.32756],[20.1758,49.3141],[20.15902,49.30651],[20.14553,49.31735],[20.13291,49.30055],[20.12869,49.27708],[20.122,49.2679],[20.10218,49.25275],[20.09784,49.23458],[20.1016,49.2227],[20.0872,49.2074],[20.08453,49.19295],[20.0878,49.1836],[20.07562,49.17871],[20.04043,49.19698],[20.0205,49.2015],[20.0065,49.2132],[20.00809,49.22028],[19.98151,49.23177],[19.9712,49.23],[19.91921,49.23577],[19.90355,49.23088],[19.9019,49.213],[19.8703,49.1985],[19.8406,49.1937],[19.8296,49.20158],[19.8198,49.1995],[19.8075,49.20558],[19.795,49.1984],[19.7631,49.2076],[19.7584,49.216],[19.7668,49.22265],[19.7663,49.2346],[19.79043,49.25529],[19.7925,49.268],[19.8063,49.2745],[19.82211,49.27734],[19.80994,49.29517],[19.7945,49.296],[19.79261,49.30258],[19.8049,49.32285],[19.7955,49.3481],[19.80246,49.35332],[19.8021,49.37],[19.7925,49.3787],[19.79046,49.41044],[19.76765,49.41299],[19.74645,49.40793],[19.72958,49.3917],[19.7143,49.392],[19.6865,49.4028],[19.66287,49.40768],[19.6386,49.4086],[19.6346,49.4125],[19.64713,49.43297],[19.6378,49.4405],[19.64057,49.45653],[19.6114,49.4469],[19.59742,49.45852],[19.5816,49.458],[19.554,49.4897],[19.55165,49.50743],[19.5304,49.5358],[19.5274,49.5612],[19.52897,49.57267],[19.5182,49.5734],[19.51009,49.58136],[19.4972,49.5816],[19.4784,49.588],[19.4684,49.5965],[19.47436,49.60474],[19.46739,49.61364],[19.44363,49.60928],[19.4446,49.6005],[19.40979,49.59174],[19.4076,49.5808],[19.4002,49.5742],[19.37155,49.56736],[19.36665,49.55378],[19.3686,49.545],[19.3624,49.5361],[19.3188,49.5311],[19.31517,49.53652],[19.26469,49.53247],[19.261,49.5273],[19.23417,49.51123],[19.23699,49.50168],[19.2316,49.4878],[19.22112,49.47503],[19.2283,49.4637],[19.219,49.4486],[19.2074,49.45167],[19.19651,49.44688],[19.18608,49.43512],[19.1974,49.4146],[19.18762,49.40971],[19.17712,49.4139],[19.1534,49.4038],[19.13741,49.40991],[19.12238,49.4026],[19.1073,49.4037],[19.09141,49.41599],[19.07266,49.41799],[19.05406,49.41519],[19.0447,49.4004],[19.027,49.394],[18.9897,49.39838],[18.9799,49.3952],[18.9712,49.4021],[18.9687,49.4133],[18.98554,49.42176],[18.98814,49.43175],[18.9778,49.4405],[18.97381,49.4516],[18.9608,49.4547],[18.96997,49.47644],[18.9605,49.4828],[18.97099,49.50455],[18.94165,49.51888],[18.8971,49.5144],[18.8691,49.519],[18.843,49.5185],[18.8373,49.5236],[18.8441,49.5341],[18.85737,49.53802],[18.85911,49.55035],[18.8376,49.5622],[18.82931,49.59485],[18.8232,49.6041],[18.82422,49.61466],[18.8063,49.6513],[18.81004,49.6709],[18.80467,49.67877],[18.78055,49.68539],[18.76415,49.68459],[18.7512,49.6769],[18.73554,49.68238],[18.7192,49.6838],[18.70626,49.70442],[18.69366,49.70659],[18.6682,49.7034],[18.6526,49.7077],[18.6252,49.7224],[18.6288,49.72655],[18.62899,49.74712],[18.6149,49.7534],[18.61005,49.77112],[18.5971,49.7847],[18.59974,49.78986],[18.59298,49.80169],[18.5827,49.8091],[18.58222,49.81817],[18.5694,49.8344],[18.58862,49.8452],[18.5837,49.8523],[18.60375,49.85769],[18.602,49.86478],[18.5719,49.8722],[18.56601,49.88308],[18.57992,49.90528],[18.57434,49.91499],[18.559,49.918],[18.54509,49.92549],[18.535,49.9003],[18.50812,49.9028],[18.46792,49.91559],[18.46399,49.92178],[18.4443,49.9234],[18.43272,49.92849],[18.43033,49.93808],[18.39208,49.934],[18.3677,49.9368],[18.35618,49.94382],[18.3409,49.9257],[18.33314,49.92739],[18.3217,49.9159],[18.2992,49.9238],[18.2792,49.9401],[18.28177,49.95055],[18.2777,49.96351],[18.23385,49.97099],[18.2206,49.9689],[18.20631,49.9977],[18.1932,49.9946],[18.18295,50.00036],[18.16869,49.99857],[18.169,49.9864],[18.1538,49.9824],[18.14684,49.9916],[18.13131,49.99801],[18.11698,49.99421],[18.1048,50.0009],[18.0933,50.015],[18.10224,50.02262],[18.0859,50.0317],[18.08888,50.04403],[18.066,50.0481],[18.06155,50.05894],[18.0498,50.0584],[18.03512,50.0657],[18.00551,50.05352],[18.00863,50.03239],[18.0247,50.0388],[18.0434,50.0367],[18.049,50.0275],[18.0463,50.0159],[18.03538,50.011],[17.99187,50.0146],[17.9842,50.0055],[17.97306,50.00858],[17.95415,50.00512],[17.92288,49.9787],[17.9092,49.9765],[17.88525,49.97928],[17.8686,49.9725],[17.8266,49.9942],[17.83643,50.00354],[17.8278,50.0112],[17.8042,50.0124],[17.79159,50.01918],[17.7779,50.0201],[17.7704,50.0358],[17.77173,50.04602],[17.7568,50.0609],[17.7498,50.07744],[17.7298,50.0899],[17.73049,50.09747],[17.70489,50.11443],[17.68352,50.11717],[17.6766,50.103],[17.6503,50.1108],[17.63905,50.13134],[17.6108,50.1401],[17.5927,50.1599],[17.6012,50.1696],[17.62648,50.1704],[17.6423,50.1758],[17.70198,50.18453],[17.71083,50.19531],[17.7101,50.1992],[17.7242,50.2066],[17.73469,50.20253],[17.75822,50.20681],[17.7566,50.2214],[17.76448,50.23655],[17.725,50.2567],[17.7272,50.274],[17.73468,50.27772],[17.7511,50.29926],[17.7291,50.3034],[17.72249,50.31763],[17.71296,50.3226],[17.68748,50.32767],[17.6891,50.3019],[17.6507,50.2777],[17.6173,50.2669],[17.5981,50.2707],[17.5975,50.2749],[17.59166,50.27828],[17.54902,50.2699],[17.49564,50.2751],[17.4729,50.27],[17.45818,50.27003],[17.4545,50.2565],[17.4375,50.2517],[17.42081,50.27711],[17.4069,50.2739],[17.38858,50.28279],[17.36649,50.28204],[17.363,50.265],[17.3498,50.2639],[17.3428,50.2809],[17.34812,50.28747],[17.3463,50.2985],[17.35308,50.30772],[17.3376,50.3132],[17.33998,50.32281],[17.32776,50.32703],[17.3112,50.3202],[17.2898,50.3175],[17.2479,50.3318],[17.2254,50.3447],[17.2011,50.364],[17.1991,50.3751],[17.20288,50.38626],[17.18425,50.38983],[17.1795,50.3862],[17.1433,50.3804],[17.1225,50.39421],[17.1111,50.3937],[17.11022,50.40498],[17.08528,50.40579],[17.081,50.4022],[17.05312,50.4069],[17.02452,50.42128],[17.0135,50.4186],[16.99839,50.42756],[16.9825,50.4197],[16.9712,50.4214],[16.9461,50.43399],[16.927,50.4384],[16.90754,50.44931],[16.88132,50.44232],[16.8807,50.4362],[16.861,50.41097],[16.87185,50.40309],[16.9082,50.3911],[16.9195,50.3687],[16.91593,50.36243],[16.92971,50.34592],[16.9361,50.3435],[16.93436,50.33077],[16.94079,50.31977],[16.95594,50.31219],[17.0026,50.3021],[17.02,50.2783],[17.0166,50.2673],[17.00197,50.25591],[17.01071,50.24271],[17.0283,50.23],[17.0148,50.2194],[16.9985,50.2159],[16.97576,50.24462],[16.96364,50.23922],[16.9655,50.2313],[16.956,50.2225],[16.927,50.223],[16.91736,50.22615],[16.88785,50.21572],[16.88268,50.19979],[16.8716,50.197],[16.84671,50.20711],[16.8361,50.1989],[16.80976,50.18916],[16.80073,50.18008],[16.7974,50.1657],[16.7833,50.1456],[16.7617,50.1361],[16.74655,50.135],[16.72944,50.11723],[16.7239,50.1052],[16.7036,50.0963],[16.6409,50.1122],[16.6138,50.1253],[16.59533,50.14046],[16.5802,50.1434],[16.58489,50.15223],[16.5608,50.1643],[16.5582,50.174],[16.56357,50.18033],[16.5544,50.1965],[16.56063,50.20554],[16.54823,50.22975],[16.53754,50.23896],[16.5228,50.2394],[16.49751,50.25979],[16.4667,50.2875],[16.46448,50.29572],[16.4482,50.305],[16.4321,50.32386],[16.40975,50.32428],[16.3993,50.3192],[16.3832,50.3288],[16.37519,50.34229],[16.3612,50.3536],[16.36788,50.367],[16.36076,50.37934],[16.3373,50.3782],[16.32625,50.38209],[16.30249,50.38218],[16.2865,50.3677],[16.2677,50.3794],[16.26302,50.39365],[16.23846,50.4138],[16.2218,50.4069],[16.20965,50.42684],[16.1983,50.4288],[16.1988,50.4418],[16.2052,50.4487],[16.21969,50.45191],[16.2313,50.4595],[16.25412,50.46709],[16.2493,50.4719],[16.2685,50.4829],[16.29402,50.47937],[16.3006,50.4908],[16.31219,50.49425],[16.3117,50.5062],[16.319,50.5079],[16.3438,50.49587],[16.36034,50.5012],[16.3739,50.5164],[16.40088,50.52958],[16.3874,50.5418],[16.41041,50.54799],[16.4034,50.5663],[16.42636,50.5708],[16.44464,50.57963],[16.44336,50.58643],[16.423,50.60629],[16.40331,50.61793],[16.3944,50.6187],[16.36263,50.64815],[16.3512,50.6478],[16.3429,50.66153],[16.32215,50.66655],[16.30498,50.6591],[16.2818,50.6614],[16.27945,50.66806],[16.2584,50.6671],[16.23415,50.67099],[16.22185,50.65028],[16.2205,50.6365],[16.1876,50.6272],[16.17028,50.64534],[16.14849,50.65325],[16.1395,50.6508],[16.12566,50.66061],[16.10392,50.66333],[16.0951,50.653],[16.06756,50.63972],[16.06239,50.63162],[16.0584,50.6131],[16.04257,50.61412],[16.0292,50.6038],[16.00622,50.606],[15.9864,50.6147],[16.01418,50.62894],[16.001,50.6453],[16.00408,50.65851],[15.9897,50.6783],[15.98839,50.68489],[15.96647,50.69177],[15.93232,50.68653],[15.8799,50.6712],[15.861,50.6744],[15.86328,50.68047],[15.85175,50.70688],[15.8299,50.7247],[15.83161,50.74286],[15.81428,50.75534],[15.7916,50.75269],[15.7792,50.7423],[15.7598,50.74359],[15.735,50.7361],[15.72336,50.73978],[15.7057,50.7373],[15.6886,50.7428],[15.6836,50.75269],[15.65935,50.75988],[15.6221,50.7652],[15.6163,50.77231],[15.60189,50.77677],[15.57884,50.77899],[15.564,50.7761],[15.5457,50.78048],[15.5243,50.777],[15.51096,50.79069],[15.4937,50.7882],[15.4805,50.7908],[15.45024,50.80707],[15.43893,50.80907],[15.42091,50.8032],[15.4151,50.7928],[15.3921,50.7759],[15.3748,50.7776],[15.37396,50.78873],[15.3662,50.8018],[15.37423,50.81108],[15.37469,50.8207],[15.36752,50.83766],[15.35215,50.85149],[15.3098,50.8614],[15.2771,50.891],[15.268,50.9177],[15.2678,50.9325],[15.28981,50.94728],[15.2918,50.95313],[15.2739,50.9629],[15.27389,50.97917],[15.2485,50.9797],[15.2372,50.9944],[15.2187,50.99549],[15.20283,50.99142],[15.18928,50.98021],[15.1783,50.9847],[15.17122,51.01979],[15.14437,51.01329],[15.1351,50.99922],[15.13608,50.9916],[15.10638,50.99161],[15.1007,50.9948],[15.0969,51.0019],[15.10668,51.01],[15.0788,51.0137],[15.05849,51.02223],[15.0557,51.012],[15.0386,51.0121],[15.03007,51.02186],[15.02208,51.0221],[15.00652,51.01371],[14.98529,51.01065],[14.96894,50.98987],[14.99113,50.98089],[15.0057,50.9863],[15.0173,50.9668],[15.01102,50.96282],[15.0154,50.9496],[15.0104,50.9381],[14.9899,50.92167],[14.9989,50.9129],[14.99622,50.90051],[15.0021,50.869],[14.98586,50.86909],[14.9593,50.8619],[14.9374,50.8694],[14.90087,50.87588],[14.8973,50.8674],[14.87565,50.8769],[14.86388,50.8706],[14.8234,50.8706],[14.8196,50.8851],[14.84336,50.90068],[14.8516,50.9106],[14.86587,50.91663],[14.8753,50.9308],[14.89619,50.94053],[14.8931,50.9501],[14.9043,50.9684],[14.91735,50.97405],[14.9199,50.9887],[14.93794,51.01156],[14.9354,51.0206],[14.94768,51.02837],[14.9537,51.0467],[14.96467,51.05035],[14.9676,51.0711],[14.97944,51.07745],[14.98355,51.09005],[14.9826,51.1134],[14.99755,51.12289],[14.9908,51.1415],[15.00071,51.15016],[14.9931,51.1624],[15.00859,51.18239],[15.0047,51.1909],[15.0181,51.22079],[15.0164,51.2277],[15.03696,51.24349],[15.0233,51.2501],[15.03703,51.2583],[15.03282,51.29422],[15.013,51.3008],[15.00856,51.3165],[14.9924,51.3237],[14.9778,51.3417],[14.9742,51.364],[14.97773,51.37555],[14.9647,51.3868],[14.96808,51.40202],[14.9589,51.4109],[14.96689,51.4163],[14.9661,51.4268],[14.97387,51.44171],[14.9668,51.446],[14.94713,51.4719],[14.9267,51.4732],[14.92199,51.48228],[14.8978,51.4821],[14.88745,51.48786],[14.8701,51.4853],[14.85282,51.4893],[14.82032,51.50727],[14.8135,51.5059],[14.79669,51.51756],[14.76648,51.5189],[14.7367,51.5256],[14.7291,51.5314],[14.7288,51.55035],[14.7112,51.5627],[14.72684,51.57498],[14.7304,51.5841],[14.7505,51.5949],[14.76496,51.60776],[14.76402,51.61741],[14.7541,51.6268],[14.75586,51.64551],[14.7511,51.6516],[14.75742,51.66059],[14.74672,51.67625],[14.70148,51.70475],[14.6892,51.7093],[14.67615,51.72352],[14.66809,51.72582],[14.6567,51.7405],[14.66241,51.75788],[14.6515,51.7607],[14.65504,51.77364],[14.64622,51.79429],[14.63125,51.8017],[14.6049,51.805],[14.591,51.8199],[14.5905,51.8387],[14.61238,51.85759],[14.6232,51.85791],[14.65243,51.87432],[14.6559,51.8848],[14.67343,51.88952],[14.69328,51.90123],[14.6913,51.9081],[14.70528,51.92398],[14.7035,51.9313],[14.71887,51.94168],[14.72075,51.95304],[14.7073,51.9657],[14.707,51.9796],[14.71617,51.9825],[14.72152,51.99473],[14.714,52.0037],[14.74161,52.02425],[14.74981,52.04191],[14.7452,52.0539],[14.75713,52.06065],[14.75834,52.06705],[14.74123,52.08523],[14.7243,52.0935],[14.6947,52.1016],[14.6816,52.1166],[14.68397,52.12585],[14.6791,52.1435],[14.70295,52.16418],[14.7052,52.17316],[14.6854,52.1924],[14.6885,52.1989],[14.70261,52.20615],[14.71159,52.21904],[14.71467,52.23694],[14.69264,52.25569],[14.5926,52.2747],[14.58877,52.28215],[14.5758,52.2886],[14.576,52.2971],[14.58456,52.30695],[14.57269,52.32389],[14.561,52.331],[14.56294,52.33824],[14.5536,52.3499],[14.55204,52.37412],[14.535,52.3935],[14.5361,52.4014],[14.54696,52.41416],[14.5476,52.4317],[14.562,52.4396],[14.57949,52.44185],[14.6099,52.46505],[14.6122,52.4758],[14.6329,52.49005],[14.63161,52.50168],[14.616,52.5081],[14.605,52.5276],[14.6185,52.5569],[14.63931,52.57068],[14.63421,52.57684],[14.6137,52.5866],[14.60943,52.59736],[14.59612,52.61073],[14.56396,52.62471],[14.50528,52.64341],[14.463,52.6627],[14.45771,52.67386],[14.4356,52.68],[14.42402,52.69614],[14.4135,52.7008],[14.40486,52.71142],[14.3837,52.7256],[14.37352,52.73665],[14.3609,52.7406],[14.35237,52.75075],[14.2804,52.7737],[14.23012,52.80499],[14.21736,52.8169],[14.1301,52.8283],[14.1237,52.8454]]]}}]}